ORBCOMM FM33            
1 25983U 99065D   25067.48551220  .00001876  00000+0  63977-3 0  9999
2 25983  45.0275 117.6126 0010751 272.3472  87.6147 14.39584706321621
ORBCOMM FM36            
1 25984U 99065E   25067.45660519  .00002230  00000+0  78183-3 0  9999
2 25984  45.0374 208.1292 0004408 170.5072 189.5860 14.37680181320512
ORBCOMM FM35            
1 25985U 99065F   25067.43517894  .00001875  00000+0  67777-3 0  9996
2 25985  45.0388 212.4831 0004488 236.8403 123.2015 14.36715697320480
ORBCOMM FM34            
1 25986U 99065G   25067.47317058  .00001789  00000+0  64846-3 0  9999
2 25986  45.0383 212.8036 0005094 197.8448 162.2222 14.36761837320453
ORBCOMM FM38            
1 33060U 08031A   25067.48682571  .00003149  00000+0  43332-3 0  9999
2 33060  48.4398  74.9427 0006134 322.6084  37.4404 14.80592125899816
ORBCOMM FM41            
1 33061U 08031B   25067.20169917  .00002999  00000+0  41775-3 0  9995
2 33061  48.4431  83.7405 0005399 307.5163 100.8203 14.80209820899270
ORBCOMM FM29            
1 33062U 08031C   25067.48071951  .00003069  00000+0  42619-3 0  9993
2 33062  48.4381  90.3337 0007195 307.9695 200.8975 14.80270113899611
ORBCOMM FM39            
1 33063U 08031D   25067.18461120  .00002501  00000+0  36377-3 0  9996
2 33063  48.4393 114.9343 0008127 282.1571  77.8433 14.78917409898846
