<?xml version="1.0" encoding="UTF-8"?>
<ndm xmlns:xsi="http://www.w3.org/2001/XMLSchema-instance" xsi:noNamespaceSchemaLocation="https://sanaregistry.org/r/ndmxml_unqualified/ndmxml-2.0.0-master-2.0.xsd">
<omm id="CCSDS_OMM_VERS" version="2.0">
<header><CREATION_DATE/><ORIGINATOR/></header><body><segment><metadata><OBJECT_NAME>ORBCOMM FM33</OBJECT_NAME><OBJECT_ID>1999-065D</OBJECT_ID><CENTER_NAME>EARTH</CENTER_NAME><REF_FRAME>TEME</REF_FRAME><TIME_SYSTEM>UTC</TIME_SYSTEM><MEAN_ELEMENT_THEORY>SGP4</MEAN_ELEMENT_THEORY></metadata><data><meanElements><EPOCH>2025-03-08T11:39:08.254080</EPOCH><MEAN_MOTION>14.39584706</MEAN_MOTION><ECCENTRICITY>.0010751</ECCENTRICITY><INCLINATION>45.0275</INCLINATION><RA_OF_ASC_NODE>117.6126</RA_OF_ASC_NODE><ARG_OF_PERICENTER>272.3472</ARG_OF_PERICENTER><MEAN_ANOMALY>87.6147</MEAN_ANOMALY></meanElements><tleParameters><EPHEMERIS_TYPE>0</EPHEMERIS_TYPE><CLASSIFICATION_TYPE>U</CLASSIFICATION_TYPE><NORAD_CAT_ID>25983</NORAD_CAT_ID><ELEMENT_SET_NO>999</ELEMENT_SET_NO><REV_AT_EPOCH>32162</REV_AT_EPOCH><BSTAR>.63977E-3</BSTAR><MEAN_MOTION_DOT>.1876E-4</MEAN_MOTION_DOT><MEAN_MOTION_DDOT>0</MEAN_MOTION_DDOT></tleParameters></data></segment></body></omm>
<omm id="CCSDS_OMM_VERS" version="2.0">
<header><CREATION_DATE/><ORIGINATOR/></header><body><segment><metadata><OBJECT_NAME>ORBCOMM FM36</OBJECT_NAME><OBJECT_ID>1999-065E</OBJECT_ID><CENTER_NAME>EARTH</CENTER_NAME><REF_FRAME>TEME</REF_FRAME><TIME_SYSTEM>UTC</TIME_SYSTEM><MEAN_ELEMENT_THEORY>SGP4</MEAN_ELEMENT_THEORY></metadata><data><meanElements><EPOCH>2025-03-08T10:57:30.688416</EPOCH><MEAN_MOTION>14.37680181</MEAN_MOTION><ECCENTRICITY>.0004408</ECCENTRICITY><INCLINATION>45.0374</INCLINATION><RA_OF_ASC_NODE>208.1292</RA_OF_ASC_NODE><ARG_OF_PERICENTER>170.5072</ARG_OF_PERICENTER><MEAN_ANOMALY>189.5860</MEAN_ANOMALY></meanElements><tleParameters><EPHEMERIS_TYPE>0</EPHEMERIS_TYPE><CLASSIFICATION_TYPE>U</CLASSIFICATION_TYPE><NORAD_CAT_ID>25984</NORAD_CAT_ID><ELEMENT_SET_NO>999</ELEMENT_SET_NO><REV_AT_EPOCH>32051</REV_AT_EPOCH><BSTAR>.78183E-3</BSTAR><MEAN_MOTION_DOT>.223E-4</MEAN_MOTION_DOT><MEAN_MOTION_DDOT>0</MEAN_MOTION_DDOT></tleParameters></data></segment></body></omm>
<omm id="CCSDS_OMM_VERS" version="2.0">
<header><CREATION_DATE/><ORIGINATOR/></header><body><segment><metadata><OBJECT_NAME>ORBCOMM FM35</OBJECT_NAME><OBJECT_ID>1999-065F</OBJECT_ID><CENTER_NAME>EARTH</CENTER_NAME><REF_FRAME>TEME</REF_FRAME><TIME_SYSTEM>UTC</TIME_SYSTEM><MEAN_ELEMENT_THEORY>SGP4</MEAN_ELEMENT_THEORY></metadata><data><meanElements><EPOCH>2025-03-08T10:26:39.460416</EPOCH><MEAN_MOTION>14.36715697</MEAN_MOTION><ECCENTRICITY>.0004488</ECCENTRICITY><INCLINATION>45.0388</INCLINATION><RA_OF_ASC_NODE>212.4831</RA_OF_ASC_NODE><ARG_OF_PERICENTER>236.8403</ARG_OF_PERICENTER><MEAN_ANOMALY>123.2015</MEAN_ANOMALY></meanElements><tleParameters><EPHEMERIS_TYPE>0</EPHEMERIS_TYPE><CLASSIFICATION_TYPE>U</CLASSIFICATION_TYPE><NORAD_CAT_ID>25985</NORAD_CAT_ID><ELEMENT_SET_NO>999</ELEMENT_SET_NO><REV_AT_EPOCH>32048</REV_AT_EPOCH><BSTAR>.67777E-3</BSTAR><MEAN_MOTION_DOT>.1875E-4</MEAN_MOTION_DOT><MEAN_MOTION_DDOT>0</MEAN_MOTION_DDOT></tleParameters></data></segment></body></omm>
<omm id="CCSDS_OMM_VERS" version="2.0">
<header><CREATION_DATE/><ORIGINATOR/></header><body><segment><metadata><OBJECT_NAME>ORBCOMM FM34</OBJECT_NAME><OBJECT_ID>1999-065G</OBJECT_ID><CENTER_NAME>EARTH</CENTER_NAME><REF_FRAME>TEME</REF_FRAME><TIME_SYSTEM>UTC</TIME_SYSTEM><MEAN_ELEMENT_THEORY>SGP4</MEAN_ELEMENT_THEORY></metadata><data><meanElements><EPOCH>2025-03-08T11:21:21.938112</EPOCH><MEAN_MOTION>14.36761837</MEAN_MOTION><ECCENTRICITY>.0005094</ECCENTRICITY><INCLINATION>45.0383</INCLINATION><RA_OF_ASC_NODE>212.8036</RA_OF_ASC_NODE><ARG_OF_PERICENTER>197.8448</ARG_OF_PERICENTER><MEAN_ANOMALY>162.2222</MEAN_ANOMALY></meanElements><tleParameters><EPHEMERIS_TYPE>0</EPHEMERIS_TYPE><CLASSIFICATION_TYPE>U</CLASSIFICATION_TYPE><NORAD_CAT_ID>25986</NORAD_CAT_ID><ELEMENT_SET_NO>999</ELEMENT_SET_NO><REV_AT_EPOCH>32045</REV_AT_EPOCH><BSTAR>.64846E-3</BSTAR><MEAN_MOTION_DOT>.1789E-4</MEAN_MOTION_DOT><MEAN_MOTION_DDOT>0</MEAN_MOTION_DDOT></tleParameters></data></segment></body></omm>
<omm id="CCSDS_OMM_VERS" version="2.0">
<header><CREATION_DATE/><ORIGINATOR/></header><body><segment><metadata><OBJECT_NAME>ORBCOMM FM38</OBJECT_NAME><OBJECT_ID>2008-031A</OBJECT_ID><CENTER_NAME>EARTH</CENTER_NAME><REF_FRAME>TEME</REF_FRAME><TIME_SYSTEM>UTC</TIME_SYSTEM><MEAN_ELEMENT_THEORY>SGP4</MEAN_ELEMENT_THEORY></metadata><data><meanElements><EPOCH>2025-03-08T11:41:01.741344</EPOCH><MEAN_MOTION>14.80592125</MEAN_MOTION><ECCENTRICITY>.0006134</ECCENTRICITY><INCLINATION>48.4398</INCLINATION><RA_OF_ASC_NODE>74.9427</RA_OF_ASC_NODE><ARG_OF_PERICENTER>322.6084</ARG_OF_PERICENTER><MEAN_ANOMALY>37.4404</MEAN_ANOMALY></meanElements><tleParameters><EPHEMERIS_TYPE>0</EPHEMERIS_TYPE><CLASSIFICATION_TYPE>U</CLASSIFICATION_TYPE><NORAD_CAT_ID>33060</NORAD_CAT_ID><ELEMENT_SET_NO>999</ELEMENT_SET_NO><REV_AT_EPOCH>89981</REV_AT_EPOCH><BSTAR>.43332E-3</BSTAR><MEAN_MOTION_DOT>.3149E-4</MEAN_MOTION_DOT><MEAN_MOTION_DDOT>0</MEAN_MOTION_DDOT></tleParameters></data></segment></body></omm>
<omm id="CCSDS_OMM_VERS" version="2.0">
<header><CREATION_DATE/><ORIGINATOR/></header><body><segment><metadata><OBJECT_NAME>ORBCOMM FM41</OBJECT_NAME><OBJECT_ID>2008-031B</OBJECT_ID><CENTER_NAME>EARTH</CENTER_NAME><REF_FRAME>TEME</REF_FRAME><TIME_SYSTEM>UTC</TIME_SYSTEM><MEAN_ELEMENT_THEORY>SGP4</MEAN_ELEMENT_THEORY></metadata><data><meanElements><EPOCH>2025-03-08T04:50:26.808288</EPOCH><MEAN_MOTION>14.80209820</MEAN_MOTION><ECCENTRICITY>.0005399</ECCENTRICITY><INCLINATION>48.4431</INCLINATION><RA_OF_ASC_NODE>83.7405</RA_OF_ASC_NODE><ARG_OF_PERICENTER>307.5163</ARG_OF_PERICENTER><MEAN_ANOMALY>100.8203</MEAN_ANOMALY></meanElements><tleParameters><EPHEMERIS_TYPE>0</EPHEMERIS_TYPE><CLASSIFICATION_TYPE>U</CLASSIFICATION_TYPE><NORAD_CAT_ID>33061</NORAD_CAT_ID><ELEMENT_SET_NO>999</ELEMENT_SET_NO><REV_AT_EPOCH>89927</REV_AT_EPOCH><BSTAR>.41775E-3</BSTAR><MEAN_MOTION_DOT>.2999E-4</MEAN_MOTION_DOT><MEAN_MOTION_DDOT>0</MEAN_MOTION_DDOT></tleParameters></data></segment></body></omm>
<omm id="CCSDS_OMM_VERS" version="2.0">
<header><CREATION_DATE/><ORIGINATOR/></header><body><segment><metadata><OBJECT_NAME>ORBCOMM FM29</OBJECT_NAME><OBJECT_ID>2008-031C</OBJECT_ID><CENTER_NAME>EARTH</CENTER_NAME><REF_FRAME>TEME</REF_FRAME><TIME_SYSTEM>UTC</TIME_SYSTEM><MEAN_ELEMENT_THEORY>SGP4</MEAN_ELEMENT_THEORY></metadata><data><meanElements><EPOCH>2025-03-08T11:32:14.165664</EPOCH><MEAN_MOTION>14.80270113</MEAN_MOTION><ECCENTRICITY>.0007195</ECCENTRICITY><INCLINATION>48.4381</INCLINATION><RA_OF_ASC_NODE>90.3337</RA_OF_ASC_NODE><ARG_OF_PERICENTER>307.9695</ARG_OF_PERICENTER><MEAN_ANOMALY>200.8975</MEAN_ANOMALY></meanElements><tleParameters><EPHEMERIS_TYPE>0</EPHEMERIS_TYPE><CLASSIFICATION_TYPE>U</CLASSIFICATION_TYPE><NORAD_CAT_ID>33062</NORAD_CAT_ID><ELEMENT_SET_NO>999</ELEMENT_SET_NO><REV_AT_EPOCH>89961</REV_AT_EPOCH><BSTAR>.42619E-3</BSTAR><MEAN_MOTION_DOT>.3069E-4</MEAN_MOTION_DOT><MEAN_MOTION_DDOT>0</MEAN_MOTION_DDOT></tleParameters></data></segment></body></omm>
<omm id="CCSDS_OMM_VERS" version="2.0">
<header><CREATION_DATE/><ORIGINATOR/></header><body><segment><metadata><OBJECT_NAME>ORBCOMM FM39</OBJECT_NAME><OBJECT_ID>2008-031D</OBJECT_ID><CENTER_NAME>EARTH</CENTER_NAME><REF_FRAME>TEME</REF_FRAME><TIME_SYSTEM>UTC</TIME_SYSTEM><MEAN_ELEMENT_THEORY>SGP4</MEAN_ELEMENT_THEORY></metadata><data><meanElements><EPOCH>2025-03-08T04:25:50.407680</EPOCH><MEAN_MOTION>14.78917409</MEAN_MOTION><ECCENTRICITY>.0008127</ECCENTRICITY><INCLINATION>48.4393</INCLINATION><RA_OF_ASC_NODE>114.9343</RA_OF_ASC_NODE><ARG_OF_PERICENTER>282.1571</ARG_OF_PERICENTER><MEAN_ANOMALY>77.8433</MEAN_ANOMALY></meanElements><tleParameters><EPHEMERIS_TYPE>0</EPHEMERIS_TYPE><CLASSIFICATION_TYPE>U</CLASSIFICATION_TYPE><NORAD_CAT_ID>33063</NORAD_CAT_ID><ELEMENT_SET_NO>999</ELEMENT_SET_NO><REV_AT_EPOCH>89884</REV_AT_EPOCH><BSTAR>.36377E-3</BSTAR><MEAN_MOTION_DOT>.2501E-4</MEAN_MOTION_DOT><MEAN_MOTION_DDOT>0</MEAN_MOTION_DDOT></tleParameters></data></segment></body></omm>

</ndm>
